<?xml version="1.0" encoding="UTF-8"?>
<ndm xmlns:xsi="http://www.w3.org/2001/XMLSchema-instance" xsi:noNamespaceSchemaLocation="https://sanaregistry.org/r/ndmxml_unqualified/ndmxml-2.0.0-master-2.0.xsd">
<omm id="CCSDS_OMM_VERS" version="2.0">
<header><CREATION_DATE/><ORIGINATOR/></header><body><segment><metadata><OBJECT_NAME>ORBCOMM FM33</OBJECT_NAME><OBJECT_ID>1999-065D</OBJECT_ID><CENTER_NAME>EARTH</CENTER_NAME><REF_FRAME>TEME</REF_FRAME><TIME_SYSTEM>UTC</TIME_SYSTEM><MEAN_ELEMENT_THEORY>SGP4</MEAN_ELEMENT_THEORY></metadata><data><meanElements><EPOCH>2025-04-04T09:50:06.249984</EPOCH><MEAN_MOTION>14.39774052</MEAN_MOTION><ECCENTRICITY>.0008947</ECCENTRICITY><INCLINATION>45.0298</INCLINATION><RA_OF_ASC_NODE>349.6711</RA_OF_ASC_NODE><ARG_OF_PERICENTER>46.4122</ARG_OF_PERICENTER><MEAN_ANOMALY>313.7469</MEAN_ANOMALY></meanElements><tleParameters><EPHEMERIS_TYPE>0</EPHEMERIS_TYPE><CLASSIFICATION_TYPE>U</CLASSIFICATION_TYPE><NORAD_CAT_ID>25983</NORAD_CAT_ID><ELEMENT_SET_NO>999</ELEMENT_SET_NO><REV_AT_EPOCH>32543</REV_AT_EPOCH><BSTAR>.8361E-3</BSTAR><MEAN_MOTION_DOT>.2504E-4</MEAN_MOTION_DOT><MEAN_MOTION_DDOT>0</MEAN_MOTION_DDOT></tleParameters></data></segment></body></omm>
<omm id="CCSDS_OMM_VERS" version="2.0">
<header><CREATION_DATE/><ORIGINATOR/></header><body><segment><metadata><OBJECT_NAME>ORBCOMM FM36</OBJECT_NAME><OBJECT_ID>1999-065E</OBJECT_ID><CENTER_NAME>EARTH</CENTER_NAME><REF_FRAME>TEME</REF_FRAME><TIME_SYSTEM>UTC</TIME_SYSTEM><MEAN_ELEMENT_THEORY>SGP4</MEAN_ELEMENT_THEORY></metadata><data><meanElements><EPOCH>2025-04-04T06:39:49.747968</EPOCH><MEAN_MOTION>14.37866014</MEAN_MOTION><ECCENTRICITY>.0005355</ECCENTRICITY><INCLINATION>45.0381</INCLINATION><RA_OF_ASC_NODE>81.0943</RA_OF_ASC_NODE><ARG_OF_PERICENTER>294.3430</ARG_OF_PERICENTER><MEAN_ANOMALY>65.6859</MEAN_ANOMALY></meanElements><tleParameters><EPHEMERIS_TYPE>0</EPHEMERIS_TYPE><CLASSIFICATION_TYPE>U</CLASSIFICATION_TYPE><NORAD_CAT_ID>25984</NORAD_CAT_ID><ELEMENT_SET_NO>999</ELEMENT_SET_NO><REV_AT_EPOCH>32378</REV_AT_EPOCH><BSTAR>.11701E-2</BSTAR><MEAN_MOTION_DOT>.3422E-4</MEAN_MOTION_DOT><MEAN_MOTION_DDOT>0</MEAN_MOTION_DDOT></tleParameters></data></segment></body></omm>
<omm id="CCSDS_OMM_VERS" version="2.0">
<header><CREATION_DATE/><ORIGINATOR/></header><body><segment><metadata><OBJECT_NAME>ORBCOMM FM35</OBJECT_NAME><OBJECT_ID>1999-065F</OBJECT_ID><CENTER_NAME>EARTH</CENTER_NAME><REF_FRAME>TEME</REF_FRAME><TIME_SYSTEM>UTC</TIME_SYSTEM><MEAN_ELEMENT_THEORY>SGP4</MEAN_ELEMENT_THEORY></metadata><data><meanElements><EPOCH>2025-04-04T16:36:08.978976</EPOCH><MEAN_MOTION>14.36869899</MEAN_MOTION><ECCENTRICITY>.0004091</ECCENTRICITY><INCLINATION>45.0385</INCLINATION><RA_OF_ASC_NODE>83.5909</RA_OF_ASC_NODE><ARG_OF_PERICENTER>355.5927</ARG_OF_PERICENTER><MEAN_ANOMALY>4.4885</MEAN_ANOMALY></meanElements><tleParameters><EPHEMERIS_TYPE>0</EPHEMERIS_TYPE><CLASSIFICATION_TYPE>U</CLASSIFICATION_TYPE><NORAD_CAT_ID>25985</NORAD_CAT_ID><ELEMENT_SET_NO>999</ELEMENT_SET_NO><REV_AT_EPOCH>32440</REV_AT_EPOCH><BSTAR>.82789E-3</BSTAR><MEAN_MOTION_DOT>.2329E-4</MEAN_MOTION_DOT><MEAN_MOTION_DDOT>0</MEAN_MOTION_DDOT></tleParameters></data></segment></body></omm>
<omm id="CCSDS_OMM_VERS" version="2.0">
<header><CREATION_DATE/><ORIGINATOR/></header><body><segment><metadata><OBJECT_NAME>ORBCOMM FM34</OBJECT_NAME><OBJECT_ID>1999-065G</OBJECT_ID><CENTER_NAME>EARTH</CENTER_NAME><REF_FRAME>TEME</REF_FRAME><TIME_SYSTEM>UTC</TIME_SYSTEM><MEAN_ELEMENT_THEORY>SGP4</MEAN_ELEMENT_THEORY></metadata><data><meanElements><EPOCH>2025-04-04T15:49:30.084672</EPOCH><MEAN_MOTION>14.36910667</MEAN_MOTION><ECCENTRICITY>.0005662</ECCENTRICITY><INCLINATION>45.0379</INCLINATION><RA_OF_ASC_NODE>84.2337</RA_OF_ASC_NODE><ARG_OF_PERICENTER>320.4330</ARG_OF_PERICENTER><MEAN_ANOMALY>39.6104</MEAN_ANOMALY></meanElements><tleParameters><EPHEMERIS_TYPE>0</EPHEMERIS_TYPE><CLASSIFICATION_TYPE>U</CLASSIFICATION_TYPE><NORAD_CAT_ID>25986</NORAD_CAT_ID><ELEMENT_SET_NO>999</ELEMENT_SET_NO><REV_AT_EPOCH>32436</REV_AT_EPOCH><BSTAR>.8196E-3</BSTAR><MEAN_MOTION_DOT>.2306E-4</MEAN_MOTION_DOT><MEAN_MOTION_DDOT>0</MEAN_MOTION_DDOT></tleParameters></data></segment></body></omm>
<omm id="CCSDS_OMM_VERS" version="2.0">
<header><CREATION_DATE/><ORIGINATOR/></header><body><segment><metadata><OBJECT_NAME>ORBCOMM FM38</OBJECT_NAME><OBJECT_ID>2008-031A</OBJECT_ID><CENTER_NAME>EARTH</CENTER_NAME><REF_FRAME>TEME</REF_FRAME><TIME_SYSTEM>UTC</TIME_SYSTEM><MEAN_ELEMENT_THEORY>SGP4</MEAN_ELEMENT_THEORY></metadata><data><meanElements><EPOCH>2025-04-04T06:37:16.326624</EPOCH><MEAN_MOTION>14.80905581</MEAN_MOTION><ECCENTRICITY>.0004774</ECCENTRICITY><INCLINATION>48.4401</INCLINATION><RA_OF_ASC_NODE>307.3920</RA_OF_ASC_NODE><ARG_OF_PERICENTER>82.8913</ARG_OF_PERICENTER><MEAN_ANOMALY>277.2545</MEAN_ANOMALY></meanElements><tleParameters><EPHEMERIS_TYPE>0</EPHEMERIS_TYPE><CLASSIFICATION_TYPE>U</CLASSIFICATION_TYPE><NORAD_CAT_ID>33060</NORAD_CAT_ID><ELEMENT_SET_NO>999</ELEMENT_SET_NO><REV_AT_EPOCH>90379</REV_AT_EPOCH><BSTAR>.63279E-3</BSTAR><MEAN_MOTION_DOT>.4734E-4</MEAN_MOTION_DOT><MEAN_MOTION_DDOT>0</MEAN_MOTION_DDOT></tleParameters></data></segment></body></omm>
<omm id="CCSDS_OMM_VERS" version="2.0">
<header><CREATION_DATE/><ORIGINATOR/></header><body><segment><metadata><OBJECT_NAME>ORBCOMM FM41</OBJECT_NAME><OBJECT_ID>2008-031B</OBJECT_ID><CENTER_NAME>EARTH</CENTER_NAME><REF_FRAME>TEME</REF_FRAME><TIME_SYSTEM>UTC</TIME_SYSTEM><MEAN_ELEMENT_THEORY>SGP4</MEAN_ELEMENT_THEORY></metadata><data><meanElements><EPOCH>2025-04-04T08:35:35.930400</EPOCH><MEAN_MOTION>14.80512822</MEAN_MOTION><ECCENTRICITY>.0004001</ECCENTRICITY><INCLINATION>48.4440</INCLINATION><RA_OF_ASC_NODE>314.5286</RA_OF_ASC_NODE><ARG_OF_PERICENTER>66.4964</ARG_OF_PERICENTER><MEAN_ANOMALY>103.4638</MEAN_ANOMALY></meanElements><tleParameters><EPHEMERIS_TYPE>0</EPHEMERIS_TYPE><CLASSIFICATION_TYPE>U</CLASSIFICATION_TYPE><NORAD_CAT_ID>33061</NORAD_CAT_ID><ELEMENT_SET_NO>999</ELEMENT_SET_NO><REV_AT_EPOCH>90329</REV_AT_EPOCH><BSTAR>.57515E-3</BSTAR><MEAN_MOTION_DOT>.4242E-4</MEAN_MOTION_DOT><MEAN_MOTION_DDOT>0</MEAN_MOTION_DDOT></tleParameters></data></segment></body></omm>
<omm id="CCSDS_OMM_VERS" version="2.0">
<header><CREATION_DATE/><ORIGINATOR/></header><body><segment><metadata><OBJECT_NAME>ORBCOMM FM29</OBJECT_NAME><OBJECT_ID>2008-031C</OBJECT_ID><CENTER_NAME>EARTH</CENTER_NAME><REF_FRAME>TEME</REF_FRAME><TIME_SYSTEM>UTC</TIME_SYSTEM><MEAN_ELEMENT_THEORY>SGP4</MEAN_ELEMENT_THEORY></metadata><data><meanElements><EPOCH>2025-04-04T14:11:06.883296</EPOCH><MEAN_MOTION>14.80591245</MEAN_MOTION><ECCENTRICITY>.0005754</ECCENTRICITY><INCLINATION>48.4393</INCLINATION><RA_OF_ASC_NODE>321.3139</RA_OF_ASC_NODE><ARG_OF_PERICENTER>66.4404</ARG_OF_PERICENTER><MEAN_ANOMALY>325.4124</MEAN_ANOMALY></meanElements><tleParameters><EPHEMERIS_TYPE>0</EPHEMERIS_TYPE><CLASSIFICATION_TYPE>U</CLASSIFICATION_TYPE><NORAD_CAT_ID>33062</NORAD_CAT_ID><ELEMENT_SET_NO>999</ELEMENT_SET_NO><REV_AT_EPOCH>90324</REV_AT_EPOCH><BSTAR>.57348E-3</BSTAR><MEAN_MOTION_DOT>.4237E-4</MEAN_MOTION_DOT><MEAN_MOTION_DDOT>0</MEAN_MOTION_DDOT></tleParameters></data></segment></body></omm>
<omm id="CCSDS_OMM_VERS" version="2.0">
<header><CREATION_DATE/><ORIGINATOR/></header><body><segment><metadata><OBJECT_NAME>ORBCOMM FM39</OBJECT_NAME><OBJECT_ID>2008-031D</OBJECT_ID><CENTER_NAME>EARTH</CENTER_NAME><REF_FRAME>TEME</REF_FRAME><TIME_SYSTEM>UTC</TIME_SYSTEM><MEAN_ELEMENT_THEORY>SGP4</MEAN_ELEMENT_THEORY></metadata><data><meanElements><EPOCH>2025-04-04T09:50:08.488608</EPOCH><MEAN_MOTION>14.79196417</MEAN_MOTION><ECCENTRICITY>.000681</ECCENTRICITY><INCLINATION>48.4410</INCLINATION><RA_OF_ASC_NODE>345.6518</RA_OF_ASC_NODE><ARG_OF_PERICENTER>36.6608</ARG_OF_PERICENTER><MEAN_ANOMALY>323.4771</MEAN_ANOMALY></meanElements><tleParameters><EPHEMERIS_TYPE>0</EPHEMERIS_TYPE><CLASSIFICATION_TYPE>U</CLASSIFICATION_TYPE><NORAD_CAT_ID>33063</NORAD_CAT_ID><ELEMENT_SET_NO>999</ELEMENT_SET_NO><REV_AT_EPOCH>90287</REV_AT_EPOCH><BSTAR>.62058E-3</BSTAR><MEAN_MOTION_DOT>.4448E-4</MEAN_MOTION_DOT><MEAN_MOTION_DDOT>0</MEAN_MOTION_DDOT></tleParameters></data></segment></body></omm>

</ndm>
