ORBCOMM FM33            
1 25983U 99065D   25094.40979456  .00002504  00000+0  83610-3 0  9991
2 25983  45.0298 349.6711 0008947  46.4122 313.7469 14.39774052325437
ORBCOMM FM36            
1 25984U 99065E   25094.27765912  .00003422  00000+0  11701-2 0  9998
2 25984  45.0381  81.0943 0005355 294.3430  65.6859 14.37866014323781
ORBCOMM FM35            
1 25985U 99065F   25094.69177059  .00002329  00000+0  82789-3 0  9994
2 25985  45.0385  83.5909 0004091 355.5927   4.4885 14.36869899324405
ORBCOMM FM34            
1 25986U 99065G   25094.65937598  .00002306  00000+0  81960-3 0  9998
2 25986  45.0379  84.2337 0005662 320.4330  39.6104 14.36910667324365
ORBCOMM FM38            
1 33060U 08031A   25094.27588341  .00004734  00000+0  63279-3 0  9999
2 33060  48.4401 307.3920 0004774  82.8913 277.2545 14.80905581903793
ORBCOMM FM41            
1 33061U 08031B   25094.35805475  .00004242  00000+0  57515-3 0  9999
2 33061  48.4440 314.5286 0004001  66.4964 103.4638 14.80512822903299
ORBCOMM FM29            
1 33062U 08031C   25094.59105189  .00004237  00000+0  57348-3 0  9999
2 33062  48.4393 321.3139 0005754  66.4404 325.4124 14.80591245903242
ORBCOMM FM39            
1 33063U 08031D   25094.40982047  .00004448  00000+0  62058-3 0  9994
2 33063  48.4410 345.6518 0006810  36.6608 323.4771 14.79196417902876
